{
  "norad_id": 60434,
  "name": "STARLINK-32233",
  "history": [
    {
      "epoch": "2026-03-28T12:35:11.325696Z",
      "apogee_km": 476.05096152581336,
      "perigee_km": 474.4293154273082,
      "latitude_deg": 4.028937159801029e-05,
      "longitude_deg": 114.8464954966685,
      "height_km": 475.9490169588752,
      "semi_major_axis_km": 6853.3771384765605,
      "eccentricity": 0.00011831,
      "inclination_deg": 53.1609,
      "raan_deg": 129.5873,
      "arg_perigee_deg": 76.4878,
      "mean_anomaly_deg": 283.6255,
      "mean_motion_rev_day": 15.30191604
    }
  ]
}